start=new Date('2022-04-14T00:00:00.000Z').valueOf();
sats=[{"APOAPSIS":"548.267","GP_ID":"201174553","RCS_SIZE":"LARGE","TIME_SYSTEM":"UTC","RA_OF_ASC_NODE":"272.4450","NORAD_CAT_ID":"48385","OBJECT_TYPE":"PAYLOAD","COUNTRY_CODE":"US","REV_AT_EPOCH":"5348","OBJECT_NAME":"STARLINK-2598","MEAN_ANOMALY":"301.9878","MEAN_MOTION_DOT":"0.00003524","TLE_LINE1":"1 48385U 21038AJ  22103.85231901  .00003524  00000-0  25537-3 0  9998","PERIOD":"95.592","PERIAPSIS":"546.146","SEMIMAJOR_AXIS":"6925.341","ARG_OF_PERICENTER":"58.1260","OBJECT_ID":"2021-038AJ","FILE":"3400454","MEAN_MOTION":"15.06402305","MEAN_ELEMENT_THEORY":"SGP4","ELEMENT_SET_NO":"999","DECAY_DATE":null,"ECCENTRICITY":"0.00015320","REF_FRAME":"TEME","BSTAR":"0.00025537000000","TLE_LINE2":"2 48385  53.0554 272.4450 0001532  58.1260 301.9878 15.06402305 53481","CENTER_NAME":"EARTH","EPHEMERIS_TYPE":"0","INCLINATION":"53.0554","EPOCH":"2022-04-13T20:27:20.362464","SITE":"AFETR","LAUNCH_DATE":"2021-05-04","MEAN_MOTION_DDOT":"0.0000000000000","CLASSIFICATION_TYPE":"U"},{"COUNTRY_CODE":"US","REV_AT_EPOCH":"5232","GP_ID":"201174803","RCS_SIZE":"LARGE","APOAPSIS":"548.268","NORAD_CAT_ID":"48386","OBJECT_TYPE":"PAYLOAD","RA_OF_ASC_NODE":"267.5185","TIME_SYSTEM":"UTC","FILE":"3400454","PERIAPSIS":"546.095","PERIOD":"95.591","SEMIMAJOR_AXIS":"6925.316","OBJECT_ID":"2021-038AK","ARG_OF_PERICENTER":"55.2069","ELEMENT_SET_NO":"999","MEAN_MOTION":"15.06410583","MEAN_ELEMENT_THEORY":"SGP4","MEAN_ANOMALY":"304.9068","OBJECT_NAME":"STARLINK-2606","MEAN_MOTION_DOT":"0.00010248","TLE_LINE1":"1 48386U 21038AK  22103.83893372  .00010248  00000-0  70567-3 0  9997","REF_FRAME":"TEME","DECAY_DATE":null,"ECCENTRICITY":"0.00015690","CENTER_NAME":"EARTH","EPHEMERIS_TYPE":"0","TLE_LINE2":"2 48386  53.0531 267.5185 0001569  55.2069 304.9068 15.06410583 52325","BSTAR":"0.00070567000000","SITE":"AFETR","LAUNCH_DATE":"2021-05-04","EPOCH":"2022-04-13T20:08:03.873408","CLASSIFICATION_TYPE":"U","MEAN_MOTION_DDOT":"0.0000000000000","INCLINATION":"53.0531"},{"MEAN_MOTION_DDOT":"0.0000000000000","CLASSIFICATION_TYPE":"U","EPOCH":"2022-04-13T20:55:50.840544","LAUNCH_DATE":"2021-05-04","SITE":"AFETR","INCLINATION":"53.0539","BSTAR":"0.00045017000000","TLE_LINE2":"2 48387  53.0539 267.3685 0001680  51.6329 308.4811 15.06405592 52330","EPHEMERIS_TYPE":"0","CENTER_NAME":"EARTH","DECAY_DATE":null,"ECCENTRICITY":"0.00016800","REF_FRAME":"TEME","MEAN_ELEMENT_THEORY":"SGP4","MEAN_MOTION":"15.06405592","ELEMENT_SET_NO":"999","ARG_OF_PERICENTER":"51.6329","OBJECT_ID":"2021-038AL","PERIOD":"95.592","PERIAPSIS":"546.033","SEMIMAJOR_AXIS":"6925.331","FILE":"3400454","TLE_LINE1":"1 48387U 21038AL  22103.87211621  .00006431  00000-0  45017-3 0  9994","MEAN_MOTION_DOT":"0.00006431","MEAN_ANOMALY":"308.4811","OBJECT_NAME":"STARLINK-2600","REV_AT_EPOCH":"5233","COUNTRY_CODE":"US","TIME_SYSTEM":"UTC","RA_OF_ASC_NODE":"267.3685","OBJECT_TYPE":"PAYLOAD","NORAD_CAT_ID":"48387","APOAPSIS":"548.360","RCS_SIZE":"LARGE","GP_ID":"201175054"},{"REF_FRAME":"TEME","ECCENTRICITY":"0.00016670","DECAY_DATE":null,"CENTER_NAME":"EARTH","EPHEMERIS_TYPE":"0","BSTAR":"0.00029920000000","TLE_LINE2":"2 48388  53.0549 267.6884 0001667  59.7887 300.3267 15.06402936 52323","INCLINATION":"53.0549","SITE":"AFETR","LAUNCH_DATE":"2021-05-04","EPOCH":"2022-04-13T19:11:02.223456","CLASSIFICATION_TYPE":"U","MEAN_MOTION_DDOT":"0.0000000000000","GP_ID":"201175305","RCS_SIZE":"LARGE","APOAPSIS":"548.359","NORAD_CAT_ID":"48388","OBJECT_TYPE":"PAYLOAD","RA_OF_ASC_NODE":"267.6884","TIME_SYSTEM":"UTC","COUNTRY_CODE":"US","REV_AT_EPOCH":"5232","OBJECT_NAME":"STARLINK-2594","MEAN_ANOMALY":"300.3267","MEAN_MOTION_DOT":"0.00004178","TLE_LINE1":"1 48388U 21038AM  22103.79933129  .00004178  00000-0  29920-3 0  9991","FILE":"3400454","PERIOD":"95.592","PERIAPSIS":"546.050","SEMIMAJOR_AXIS":"6925.340","ARG_OF_PERICENTER":"59.7887","OBJECT_ID":"2021-038AM","ELEMENT_SET_NO":"999","MEAN_MOTION":"15.06402936","MEAN_ELEMENT_THEORY":"SGP4"},{"COUNTRY_CODE":"US","REV_AT_EPOCH":"5239","APOAPSIS":"548.334","RCS_SIZE":"LARGE","GP_ID":"201174053","RA_OF_ASC_NODE":"262.4485","TIME_SYSTEM":"UTC","OBJECT_TYPE":"PAYLOAD","NORAD_CAT_ID":"48389","ARG_OF_PERICENTER":"55.8161","OBJECT_ID":"2021-038AN","PERIOD":"95.592","PERIAPSIS":"546.107","SEMIMAJOR_AXIS":"6925.355","FILE":"3400454","MEAN_ELEMENT_THEORY":"SGP4","MEAN_MOTION":"15.06397823","ELEMENT_SET_NO":"999","MEAN_MOTION_DOT":"0.00001323","OBJECT_NAME":"STARLINK-1904","MEAN_ANOMALY":"304.2980","TLE_LINE1":"1 48389U 21038AN  22103.85323865  .00001323  00000-0  10773-3 0  9994","ECCENTRICITY":"0.00016080","DECAY_DATE":null,"REF_FRAME":"TEME","BSTAR":"0.00010773000000","TLE_LINE2":"2 48389  53.0564 262.4485 0001608  55.8161 304.2980 15.06397823 52398","EPHEMERIS_TYPE":"0","CENTER_NAME":"EARTH","EPOCH":"2022-04-13T20:28:39.819360","LAUNCH_DATE":"2021-05-04","SITE":"AFETR","MEAN_MOTION_DDOT":"0.0000000000000","CLASSIFICATION_TYPE":"U","INCLINATION":"53.0564"},{"TLE_LINE1":"1 48390U 21038AP  22103.84954613  .00000855  00000-0  76267-4 0  9996","MEAN_MOTION_DOT":"0.00000855","OBJECT_NAME":"STARLINK-2586","MEAN_ANOMALY":"308.2945","ELEMENT_SET_NO":"999","MEAN_ELEMENT_THEORY":"SGP4","MEAN_MOTION":"15.06404648","FILE":"3400454","ARG_OF_PERICENTER":"51.8198","OBJECT_ID":"2021-038AP","SEMIMAJOR_AXIS":"6925.334","PERIAPSIS":"546.014","PERIOD":"95.592","OBJECT_TYPE":"PAYLOAD","NORAD_CAT_ID":"48390","RA_OF_ASC_NODE":"262.4701","TIME_SYSTEM":"UTC","RCS_SIZE":"LARGE","GP_ID":"201174303","APOAPSIS":"548.384","REV_AT_EPOCH":"5361","COUNTRY_CODE":"US","INCLINATION":"53.0545","CLASSIFICATION_TYPE":"U","MEAN_MOTION_DDOT":"0.0000000000000","LAUNCH_DATE":"2021-05-04","SITE":"AFETR","EPOCH":"2022-04-13T20:23:20.785632","EPHEMERIS_TYPE":"0","CENTER_NAME":"EARTH","TLE_LINE2":"2 48390  53.0545 262.4701 0001711  51.8198 308.2945 15.06404648 53616","BSTAR":"0.00007626700000","REF_FRAME":"TEME","DECAY_DATE":null,"ECCENTRICITY":"0.00017110"},{"FILE":"3400454","SEMIMAJOR_AXIS":"6925.350","PERIAPSIS":"545.859","PERIOD":"95.592","ARG_OF_PERICENTER":"49.8426","OBJECT_ID":"2021-038AQ","ELEMENT_SET_NO":"999","MEAN_MOTION":"15.06399609","MEAN_ELEMENT_THEORY":"SGP4","MEAN_ANOMALY":"310.2734","OBJECT_NAME":"STARLINK-2607","MEAN_MOTION_DOT":"0.00005560","TLE_LINE1":"1 48391U 21038AQ  22103.84587806  .00005560  00000-0  39184-3 0  9997","COUNTRY_CODE":"US","REV_AT_EPOCH":"5361","GP_ID":"201175555","RCS_SIZE":"LARGE","APOAPSIS":"548.570","NORAD_CAT_ID":"48391","OBJECT_TYPE":"PAYLOAD","RA_OF_ASC_NODE":"262.4869","TIME_SYSTEM":"UTC","SITE":"AFETR","LAUNCH_DATE":"2021-05-04","EPOCH":"2022-04-13T20:18:03.864384","CLASSIFICATION_TYPE":"U","MEAN_MOTION_DDOT":"0.0000000000000","INCLINATION":"53.0549","REF_FRAME":"TEME","ECCENTRICITY":"0.00019570","DECAY_DATE":null,"CENTER_NAME":"EARTH","EPHEMERIS_TYPE":"0","BSTAR":"0.00039184000000","TLE_LINE2":"2 48391  53.0549 262.4869 0001957  49.8426 310.2734 15.06399609 53618"},{"APOAPSIS":"548.413","GP_ID":"201175806","RCS_SIZE":"LARGE","RA_OF_ASC_NODE":"262.5034","TIME_SYSTEM":"UTC","NORAD_CAT_ID":"48392","OBJECT_TYPE":"PAYLOAD","COUNTRY_CODE":"US","REV_AT_EPOCH":"5361","OBJECT_NAME":"STARLINK-2605","MEAN_ANOMALY":"298.8316","MEAN_MOTION_DOT":"0.00000396","TLE_LINE1":"1 48392U 21038AR  22103.84219059  .00000396  00000-0  45511-4 0  9994","PERIOD":"95.592","PERIAPSIS":"546.036","SEMIMAJOR_AXIS":"6925.359","ARG_OF_PERICENTER":"61.2845","OBJECT_ID":"2021-038AR","FILE":"3400454","MEAN_MOTION":"15.06396523","MEAN_ELEMENT_THEORY":"SGP4","ELEMENT_SET_NO":"999","DECAY_DATE":null,"ECCENTRICITY":"0.00017160","REF_FRAME":"TEME","TLE_LINE2":"2 48392  53.0565 262.5034 0001716  61.2845 298.8316 15.06396523 53617","BSTAR":"0.00004551100000","CENTER_NAME":"EARTH","EPHEMERIS_TYPE":"0","INCLINATION":"53.0565","EPOCH":"2022-04-13T20:12:45.266976","SITE":"AFETR","LAUNCH_DATE":"2021-05-04","MEAN_MOTION_DDOT":"0.0000000000000","CLASSIFICATION_TYPE":"U"},{"COUNTRY_CODE":"US","REV_AT_EPOCH":"5361","GP_ID":"201174554","RCS_SIZE":"LARGE","APOAPSIS":"548.341","NORAD_CAT_ID":"48393","OBJECT_TYPE":"PAYLOAD","TIME_SYSTEM":"UTC","RA_OF_ASC_NODE":"262.5254","FILE":"3400454","PERIAPSIS":"546.017","SEMIMAJOR_AXIS":"6925.314","PERIOD":"95.591","OBJECT_ID":"2021-038AS","ARG_OF_PERICENTER":"53.9999","ELEMENT_SET_NO":"999","MEAN_MOTION":"15.06411337","MEAN_ELEMENT_THEORY":"SGP4","OBJECT_NAME":"STARLINK-2602","MEAN_ANOMALY":"306.1146","MEAN_MOTION_DOT":"0.00005990","TLE_LINE1":"1 48393U 21038AS  22103.83849091  .00005990  00000-0  42057-3 0  9995","REF_FRAME":"TEME","DECAY_DATE":null,"ECCENTRICITY":"0.00016780","CENTER_NAME":"EARTH","EPHEMERIS_TYPE":"0","BSTAR":"0.00042057000000","TLE_LINE2":"2 48393  53.0543 262.5254 0001678  53.9999 306.1146 15.06411337 53618","SITE":"AFETR","LAUNCH_DATE":"2021-05-04","EPOCH":"2022-04-13T20:07:25.614624","CLASSIFICATION_TYPE":"U","MEAN_MOTION_DDOT":"0.0000000000000","INCLINATION":"53.0543"},{"MEAN_MOTION_DOT":"0.00000841","MEAN_ANOMALY":"306.1584","OBJECT_NAME":"STARLINK-2573","TLE_LINE1":"1 48394U 21038AT  22103.83480933  .00000841  00000-0  75394-4 0  9993","FILE":"3400454","ARG_OF_PERICENTER":"53.9559","OBJECT_ID":"2021-038AT","SEMIMAJOR_AXIS":"6925.366","PERIAPSIS":"546.078","PERIOD":"95.593","ELEMENT_SET_NO":"999","MEAN_ELEMENT_THEORY":"SGP4","MEAN_MOTION":"15.06394259","RCS_SIZE":"LARGE","GP_ID":"201174804","APOAPSIS":"548.384","OBJECT_TYPE":"PAYLOAD","NORAD_CAT_ID":"48394","RA_OF_ASC_NODE":"262.5291","TIME_SYSTEM":"UTC","COUNTRY_CODE":"US","REV_AT_EPOCH":"5361","INCLINATION":"53.0557","LAUNCH_DATE":"2021-05-04","SITE":"AFETR","EPOCH":"2022-04-13T20:02:07.526112","CLASSIFICATION_TYPE":"U","MEAN_MOTION_DDOT":"0.0000000000000","REF_FRAME":"TEME","ECCENTRICITY":"0.00016650","DECAY_DATE":null,"EPHEMERIS_TYPE":"0","CENTER_NAME":"EARTH","BSTAR":"0.00007539400000","TLE_LINE2":"2 48394  53.0557 262.5291 0001665  53.9559 306.1584 15.06394259 53612"}];
